ONEWEB-0379             
1 49305U 21090AC  25150.08926561 -.00000345  00000+0 -96545-3 0  9998
2 49305  87.9044   5.9181 0001708  84.3069 275.8255 13.14502954178537
ONEWEB-0380             
1 49306U 21090AD  25150.15868468  .00000114  00000+0  25290-3 0  9999
2 49306  87.9233  21.1211 0002005  78.6581 281.4777 13.19726235177185
ONEWEB-0381             
1 49307U 21090AE  25150.05623811  .00000089  00000+0  18581-3 0  9996
2 49307  87.9263 350.7409 0001927  79.5953 280.5398 13.20771309180552
ONEWEB-0382             
1 49308U 21090AF  25150.11936058  .00000192  00000+0  44000-3 0  9994
2 49308  87.9263 350.7229 0001733  76.8705 283.2621 13.20771501180567
ONEWEB-0383             
1 49309U 21090AG  25150.15905304 -.00000176  00000+0 -50890-3 0  9997
2 49309  87.9043   5.8852 0001608  82.7028 277.4284 13.14503178178562
ONEWEB-0384             
1 49310U 21090AH  25150.11562951  .00000089  00000+0  18797-3 0  9993
2 49310  87.9265 350.7404 0001585  71.6107 288.5198 13.20784761180571
ONEWEB-0385             
1 49311U 21090AJ  25150.03572018  .00000047  00000+0  82719-4 0  9990
2 49311  87.9266 350.7568 0001765  83.9438 276.1896 13.20770611180541
ONEWEB-0386             
1 49312U 21090AK  25150.05307050  .00000144  00000+0  32194-3 0  9994
2 49312  87.9256 350.7250 0001638  79.5524 280.5794 13.20770979180559
